QIANFAN-37              
1 62238U 24232B   25143.53541314  .00000136  00000+0  19252-3 0  9996
2 62238  88.9971  61.9118 0018989  69.1061 291.2121 13.50954034 71739
QIANFAN-38              
1 62239U 24232C   25143.56000797  .00000147  00000+0  20857-3 0  9990
2 62239  88.9977  61.8114 0016851  64.3672 295.9218 13.50957129 71794
QIANFAN-39              
1 62240U 24232D   25143.59459071  .00000505  00000+0  20887-3 0  9999
2 62240  88.9972  60.6105 0017764  31.0392 329.1847 14.25179157 72454
QIANFAN-40              
1 62241U 24232E   25143.39733497  .00000121  00000+0  15008-3 0  9998
2 62241  88.9955  61.1814 0016630  72.3437 287.9532 13.58103278 72131
QIANFAN-41              
1 62242U 24232F   25143.60116931  .00000138  00000+0  19513-3 0  9994
2 62242  88.9975  61.7631 0016218  60.9320 299.3453 13.50955810 71826
QIANFAN-42              
1 62243U 24232G   25143.53511696  .00000487  00000+0  20443-3 0  9995
2 62243  88.9970  60.6354 0016777  35.9872 324.2446 14.24285691 72440
QIANFAN-43              
1 62244U 24232H   25143.37481656  .00000098  00000+0  13243-3 0  9998
2 62244  88.9979  61.8423 0017767  65.8523 294.4483 13.50956127 40402
QIANFAN-44              
1 62245U 24232J   25143.51070685  .00000146  00000+0  20664-3 0  9990
2 62245  88.9978  61.6426 0015968  63.1908 297.0874 13.50948466 71899
QIANFAN-45              
1 62246U 24232K   25143.55180696  .00000137  00000+0  19300-3 0  9994
2 62246  88.9981  61.7777 0016620  62.7409 297.5433 13.50956524 71824
QIANFAN-46              
1 62247U 24232L   25143.57653012  .00000149  00000+0  21169-3 0  9993
2 62247  88.9977  61.8525 0016762  67.7329 292.5598 13.50954574 71780
QIANFAN-47              
1 62248U 24232M   25143.58059766  .00000156  00000+0  22220-3 0  9998
2 62248  88.9973  61.7932 0017139  66.6257 293.6695 13.50936310 71817
QIANFAN-48              
1 62249U 24232N   25143.54355923  .00000163  00000+0  23399-3 0  9995
2 62249  88.9977  61.7908 0019437  68.8469 291.4757 13.50956068 71814
QIANFAN-49              
1 62250U 24232P   25143.53119132  .00000140  00000+0  19789-3 0  9999
2 62250  88.9976  61.8063 0016494  64.4889 295.7965 13.50956364 40404
QIANFAN-50              
1 62251U 24232Q   25143.55591279  .00000146  00000+0  20690-3 0  9997
2 62251  88.9982  61.8006 0018150  65.3020 295.0018 13.50940328 40435
QIANFAN-51              
1 62252U 24232R   25143.53943351  .00000155  00000+0  22143-3 0  9993
2 62252  88.9976  61.8089 0015646  68.7978 291.4843 13.50937172 40424
QIANFAN-52              
1 62253U 24232S   25143.56825346  .00000152  00000+0  21660-3 0  9990
2 62253  88.9972  61.6874 0017595  61.8137 298.4789 13.50955315 40512
QIANFAN-53              
1 62254U 24232T   25143.54765076  .00000149  00000+0  21123-3 0  9992
2 62254  88.9979  61.7787 0016487  62.9573 297.3258 13.50956097 40471
QIANFAN-54              
1 62255U 24232U   25143.58887085  .00000143  00000+0  20353-3 0  9990
2 62255  88.9970  61.4710 0004289  88.5440 271.6203 13.50947121 71983
PROBA-3 CSC             
1 62256U 24233A   25142.64156124  .00000068  00000+0 -15501-2 0  9996
2 62256  59.3627 131.1486 8074502 193.7127 109.6683  1.22069107  2053
SXM-9                   
1 62259U 24234A   25143.53169781 -.00000195  00000+0  00000+0 0  9998
2 62259   0.0112 337.9559 0004708 340.8637  28.8270  1.00271786  1674
SENTINEL-1C             
1 62261U 24235A   25143.57252943  .00000185  00000+0  48905-4 0  9998
2 62261  98.1833 151.4549 0001377  87.9065 272.2292 14.59192047 24591
STARLINK-32632          
1 62262U 24231V   25143.34386387  .00016053  00000+0  55279-3 0  9992
2 62262  53.1591 128.3661 0001197  84.9313 275.1824 15.30208855 27316
STARLINK-11496 [DTC]    
1 62267U 24237A   25143.33823793  .00213742  00000+0  16219-2 0  9993
2 62267  42.9996   7.1027 0001016 303.2327  56.8443 15.70911328 27386
STARLINK-11501 [DTC]    
1 62268U 24237B   25141.97112241  .00199616  00000+0  15113-2 0  9996
2 62268  43.0004  14.8945 0003277 257.5644 102.4857 15.71006383 27123
STARLINK-11491 [DTC]    
1 62269U 24237C   25142.66523448  .00191782  00000+0  14635-2 0  9993
2 62269  43.0008  10.6394 0003051 299.9359  60.1206 15.70843538 27288
STARLINK-11479 [DTC]    
1 62270U 24237D   25142.68116126  .00222066  00000+0  16831-2 0  9998
2 62270  42.9985  10.7626 0001554 252.1875 107.8823 15.70913089 27284
STARLINK-11489 [DTC]    
1 62271U 24237E   25143.60849186  .00172349  00000+0  13134-2 0  9992
2 62271  42.9975   5.6976 0001302 270.6061  89.4658 15.70941114 27425
STARLINK-11494 [DTC]    
1 62272U 24237F   25143.33292431  .00198459  00000+0  15108-2 0  9991
2 62272  42.9999   7.0576 0000775 293.8752  66.2034 15.70882369 27338
STARLINK-11333 [DTC]    
1 62273U 24237G   25143.34351913  .00206066  00000+0  15583-2 0  9995
2 62273  43.0001   7.1426 0002881 289.7703  70.2854 15.71015290 27382
STARLINK-11504 [DTC]    
1 62274U 24237H   25141.92878094  .00245846  00000+0  18607-2 0  9991
2 62274  43.0000  15.4460 0001630 258.4780 101.5904 15.70873454 27119
STARLINK-11495 [DTC]    
1 62275U 24237J   25142.97797325  .00161084  00000+0  12321-2 0  9993
2 62275  42.9975   9.5669 0001937 308.7012  51.3682 15.70889371 27278
STARLINK-11498 [DTC]    
1 62276U 24237K   25142.67585082  .00136901  00000+0  10515-2 0  9999
2 62276  43.0014  10.7205 0002742 282.2854  77.7707 15.70869794 27288
STARLINK-11484 [DTC]    
1 62277U 24237L   25141.92347396  .00178980  00000+0  13460-2 0  9996
2 62277  43.0012  15.4040 0000567 303.4837  56.5977 15.71234685 27163
STARLINK-11487 [DTC]    
1 62278U 24237M   25143.60318430  .00185245  00000+0  14089-2 0  9991
2 62278  42.9984   5.6519 0000934 293.8372  66.2398 15.70946564 27425
STARLINK-11499 [DTC]    
1 62279U 24237N   25143.61471061  .00254025  00000+0  19131-2 0  9999
2 62279  42.9967   5.7426 0001566 238.8616 121.2098 15.70966445 27358
STARLINK-33548          
1 62280U 24237P   25143.41983301  .00038636  00000+0  92719-3 0  9996
2 62280  42.9998  47.4629 0000869  22.9071 337.1824 15.40709586 26895
STARLINK-33544          
1 62281U 24237Q   25143.01049789  .00023967  00000+0  87844-3 0  9990
2 62281  43.0034  58.1950 0001270 287.6957  72.3756 15.27549614 26739
STARLINK-33560          
1 62282U 24237R   25143.45021939  .00012291  00000+0  45538-3 0  9998
2 62282  42.9998  55.4677 0001452 280.0574  80.0114 15.27582499 26717
STARLINK-33547          
1 62283U 24237S   25142.75585684  .00042237  00000+0  10120-2 0  9994
2 62283  42.9990  51.0736 0001374 254.1632 105.9073 15.40723104 26792
STARLINK-33563          
1 62284U 24237T   25143.45664177  .00026818  00000+0  98048-3 0  9991
2 62284  43.0055  55.5181 0001871 267.1322  92.9316 15.27580722 26801
STARLINK-33550          
1 62285U 24237U   25143.44635148  .00011574  00000+0  42899-3 0  9993
2 62285  43.0000  55.4386 0004256 266.5788  93.4576 15.27611678 26806
STARLINK-33564          
1 62286U 24237V   25143.46050395  .00025365  00000+0  92807-3 0  9998
2 62286  43.0021  55.5506 0000915 270.6564  89.4183 15.27581795 26806
STARLINK-33546          
1 62287U 24237W   25143.45278475  .00019980  00000+0  73329-3 0  9993
2 62287  43.0053  55.4879 0002134 266.3172  93.7435 15.27594368 26714
STARLINK-33565          
1 62288U 24237X   25143.15155001  .00041634  00000+0  99805-3 0  9998
2 62288  43.0023  48.8866 0001477 268.2084  91.8603 15.40713710 26856
STARLINK-33549          
1 62289U 24237Y   25143.46436928  .00026227  00000+0  95822-3 0  9999
2 62289  43.0019  55.5825 0001765 274.9516  85.1134 15.27613528 26807
GJZ 01                  
1 62290U 24238A   25143.63796423 -.00000009  00000+0  11401-3 0  9992
2 62290  59.9146  25.7094 0016462 333.2673  26.7485 13.75140459 22025
GJZ 02                  
1 62291U 24238B   25143.56181418 -.00000019  00000+0  10415-3 0  9992
2 62291  59.9187 349.8543 0008039  76.1844 284.0058 13.75133019 22696
GJZ 03                  
1 62292U 24238C   25143.56219079 -.00000019  00000+0  10350-3 0  9996
2 62292  59.9143  10.2746 0026342  49.9863 310.3450 13.75134605 22308
GJZ 04                  
1 62293U 24238D   25143.63716664 -.00000020  00000+0  10330-3 0  9997
2 62293  59.9143  10.0647 0023509  57.0779 303.2486 13.75141901 22335
GJZ 05                  
1 62294U 24238E   25143.63638202 -.00000023  00000+0  99499-4 0  9996
2 62294  59.9132  10.0455 0023493  56.5551 303.7699 13.75116634 22331
STARLINK-32648          
1 62301U 24239A   25143.16040298  .00036162  00000+0  90913-3 0  9999
2 62301  53.1569 100.4881 0001301  91.6319 268.4835 15.39640505 24942
STARLINK-32594          
1 62302U 24239B   25143.30425315  .00026514  00000+0  90407-3 0  9991
2 62302  53.1564 100.5220 0001290  77.9800 282.1345 15.30202351 24959
STARLINK-32621          
1 62303U 24239C   25143.27597232  .00019991  00000+0  50815-3 0  9996
2 62303  53.1585  99.7881 0000887  99.4190 260.6915 15.39636830 24964
STARLINK-32597          
1 62304U 24239D   25143.30382919  .00045106  00000+0  11293-2 0  9998
2 62304  53.1572  99.9630 0002302 325.6813  34.4043 15.39663830 24964
STARLINK-32649          
1 62305U 24239E   25143.59022668  .00016519  00000+0  56858-3 0  9995
2 62305  53.1591 101.0331 0001760  81.8006 278.3194 15.30201319 24979
STARLINK-32633          
1 62306U 24239F   25143.16256868  .00021301  00000+0  72903-3 0  9994
2 62306  53.1579 103.3371 0001342  71.7053 288.4093 15.30209139 24902
STARLINK-32646          
1 62307U 24239G   25143.60983211  .00022184  00000+0  56262-3 0  9993
2 62307  53.1582  98.3143 0001293 106.6126 253.5021 15.39638173 25011
STARLINK-32706          
1 62308U 24239H   25143.58400688  .00020925  00000+0  71649-3 0  9990
2 62308  53.1580 101.7032 0001477  88.0347 272.0822 15.30205970 24962
STARLINK-32678          
1 62309U 24239J   25143.28560449  .00039136  00000+0  98353-3 0  9995
2 62309  53.1580  99.8475 0001256  90.9803 269.1346 15.39614587 24960
